OBJECT_NAME,OBJECT_ID,EPOCH,MEAN_MOTION,ECCENTRICITY,INCLINATION,RA_OF_ASC_NODE,ARG_OF_PERICENTER,MEAN_ANOMALY,EPHEMERIS_TYPE,CLASSIFICATION_TYPE,NORAD_CAT_ID,ELEMENT_SET_NO,REV_AT_EPOCH,BSTAR,MEAN_MOTION_DOT,MEAN_MOTION_DDOT
ONEWEB-0636,2023-043AH,2026-06-11T15:50:32.584704,13.15549159,.0002001,87.9006,260.2988,94.4374,265.6985,0,U,56077,999,15568,.30442E-4,.24E-6,0
ONEWEB-0637,2023-043AJ,2026-06-11T17:30:56.594880,13.15548758,.000226,87.9001,260.3017,97.8945,262.2442,0,U,56078,999,15571,.21571E-3,.94E-6,0
ONEWEB-0647,2023-043AK,2026-06-11T19:13:37.485120,13.15548532,.0001826,87.9000,260.3000,97.0587,263.0751,0,U,56079,999,15571,.22881E-3,.99E-6,0
ONEWEB-0651,2023-043AL,2026-06-11T19:06:46.496736,13.15548711,.0002123,87.8999,260.2946,95.0949,265.0424,0,U,56080,999,15691,.5593E-3,.223E-5,0
ONEWEB-0718,2023-043AM,2026-06-11T18:59:53.833056,13.15551102,.0002284,87.8998,260.2761,112.1532,247.9841,0,U,56081,999,15572,.19387E-3,.86E-6,0
ONEWEB-0561,2023-068A,2026-06-11T14:12:01.235808,13.20771179,.0001804,87.9193,275.5583,89.3687,270.7653,0,U,56710,999,14876,.19185E-3,.91E-6,0
ONEWEB-0668,2023-068B,2026-06-11T17:29:58.547040,13.16594135,.0002559,87.9100,229.8561,102.2004,257.9413,0,U,56711,999,15106,.11445E-6,.13E-6,0
ONEWEB-0676,2023-068C,2026-06-11T15:51:55.069056,13.16593083,.0002089,87.9101,229.8754,88.5662,271.5708,0,U,56712,999,15097,-.10433E-3,-.27E-6,0
ONEWEB-0677,2023-068D,2026-06-11T17:33:12.120192,13.20770229,.0002313,87.9192,275.5220,94.2789,265.8609,0,U,56713,999,14908,.19725E-3,.93E-6,0
ONEWEB-0678,2023-068E,2026-06-11T16:24:45.660384,13.15548264,.0001682,87.9011,260.2892,99.8153,260.3167,0,U,56714,999,14856,-.4235E-3,-.147E-5,0
ONEWEB-0679,2023-068F,2026-06-11T16:42:05.690016,13.16593783,.0002607,87.9096,229.8603,93.7906,266.3523,0,U,56715,999,15100,-.11489E-3,-.31E-6,0
ONEWEB-0680,2023-068G,2026-06-11T17:18:52.911072,13.21827563,.0002623,87.9262,245.0580,101.0873,259.0556,0,U,56716,999,15037,-.14693E-4,.7E-7,0
ONEWEB-0681,2023-068H,2026-06-11T18:40:01.653024,13.21826584,.0002191,87.9257,245.0481,73.2736,286.8638,0,U,56717,999,15037,.36141E-4,.28E-6,0
ONEWEB-0682,2023-068J,2026-06-11T16:59:00.051936,13.15548170,.0002516,87.9005,260.2852,102.0520,258.0893,0,U,56718,999,14873,.17882E-3,.8E-6,0
ONEWEB-0683,2023-068K,2026-06-11T17:33:13.607136,13.15548812,.0002216,87.9011,260.2799,104.6213,255.5163,0,U,56719,999,14870,.2118E-3,.93E-6,0
ONEWEB-0684,2023-068L,2026-06-11T15:55:06.273120,13.15547904,.0001161,87.9009,260.2836,142.6589,217.4622,0,U,56720,999,14852,-.73243E-4,-.15E-6,0
ONEWEB-0686,2023-068M,2026-06-11T17:34:32.321856,13.16594598,.0002144,87.9092,229.8767,107.3721,252.7645,0,U,56721,999,15099,-.99565E-4,-.25E-6,0
ONEWEB-0694,2023-068N,2026-06-11T15:54:13.086144,13.16594692,.0002514,87.9112,229.8539,101.3559,258.7854,0,U,56722,999,15104,-.22039E-3,-.71E-6,0
ONEWEB-0696,2023-068P,2026-06-11T16:42:59.436000,13.15546322,.0001489,87.8999,260.3157,98.6100,261.5199,0,U,56723,999,14864,-.28698E-3,-.95E-6,0
ONEWEB-0703,2023-068Q,2026-06-11T18:46:14.178720,13.15548169,.000126,87.8999,260.2799,81.6614,278.4659,0,U,56724,999,14854,-.81232E-7,.13E-6,0
ONEWEB-0721,2023-068R,2026-06-11T12:59:12.235776,13.22468888,.000192,86.6768,87.3182,78.2563,281.8786,0,U,56725,999,15719,-.97466E-5,.1E-6,0
ONEWEB-0015,2024-188A,2026-06-11T14:05:34.492128,13.11419500,.0002285,87.8892,22.2081,75.8714,284.2667,0,U,61594,999,8372,.9105E-3,.335E-5,0
ONEWEB-0687,2024-188B,2026-06-11T14:40:33.746016,13.17647384,.0002353,87.9130,6.9864,89.3318,270.8083,0,U,61595,999,8516,-.14198E-4,.7E-7,0
ONEWEB-0688,2024-188C,2026-06-11T15:21:52.530048,13.17648496,.0002859,87.9131,6.9802,69.5490,290.5949,0,U,61596,999,8516,.13381E-3,.65E-6,0
ONEWEB-0689,2024-188D,2026-06-11T14:54:23.743296,13.11416273,.000201,87.8903,22.1584,92.3932,267.7426,0,U,61597,999,8372,-.33777E-3,-.107E-5,0
ONEWEB-0690,2024-188E,2026-06-11T15:09:02.422656,13.11415073,.0001369,87.8900,22.1680,67.1075,293.0198,0,U,61598,999,8390,-.16411E-2,-.569E-5,0
ONEWEB-0691,2024-188F,2026-06-11T15:01:43.919328,13.11415006,.0002177,87.8907,22.0775,80.5441,279.5933,0,U,61599,999,8375,-.10941E-2,-.375E-5,0
ONEWEB-0692,2024-188G,2026-06-11T15:31:00.666336,13.11418828,.0001684,87.8890,22.1878,110.8934,249.2374,0,U,61600,999,8374,-.14428E-2,-.499E-5,0
ONEWEB-0693,2024-188H,2026-06-11T13:49:31.773216,13.17647983,.0001497,87.9128,7.0132,62.2007,297.9276,0,U,61601,999,8514,.71736E-4,.41E-6,0
ONEWEB-0695,2024-188J,2026-06-11T14:56:50.580096,13.11414321,.0001943,87.8889,22.1844,100.9002,259.2344,0,U,61602,999,8373,-.52702E-3,-.174E-5,0
ONEWEB-0697,2024-188K,2026-06-11T15:43:13.657152,13.11420186,.0001556,87.8892,22.1684,109.7398,250.3898,0,U,61603,999,8372,-.87647E-4,-.18E-6,0
