ONEWEB-0636             
1 56077U 23043AH  26162.66009936  .00000024  00000+0  30442-4 0  9995
2 56077  87.9006 260.2988 0002001  94.4374 265.6985 13.15549159155685
ONEWEB-0637             
1 56078U 23043AJ  26162.72982170  .00000094  00000+0  21571-3 0  9992
2 56078  87.9001 260.3017 0002260  97.8945 262.2442 13.15548758155712
ONEWEB-0647             
1 56079U 23043AK  26162.80112830  .00000099  00000+0  22881-3 0  9990
2 56079  87.9000 260.3000 0001826  97.0587 263.0751 13.15548532155717
ONEWEB-0651             
1 56080U 23043AL  26162.79637149  .00000223  00000+0  55930-3 0  9995
2 56080  87.8999 260.2946 0002123  95.0949 265.0424 13.15548711156915
ONEWEB-0718             
1 56081U 23043AM  26162.79159529  .00000086  00000+0  19387-3 0  9990
2 56081  87.8998 260.2761 0002284 112.1532 247.9841 13.15551102155725
ONEWEB-0561             
1 56710U 23068A   26162.59168097  .00000091  00000+0  19185-3 0  9996
2 56710  87.9193 275.5583 0001804  89.3687 270.7653 13.20771179148761
ONEWEB-0668             
1 56711U 23068B   26162.72914985  .00000013  00000+0  11445-6 0  9995
2 56711  87.9100 229.8561 0002559 102.2004 257.9413 13.16594135151062
ONEWEB-0676             
1 56712U 23068C   26162.66105404 -.00000027  00000+0 -10433-3 0  9997
2 56712  87.9101 229.8754 0002089  88.5662 271.5708 13.16593083150971
ONEWEB-0677             
1 56713U 23068D   26162.73139028  .00000093  00000+0  19725-3 0  9999
2 56713  87.9192 275.5220 0002313  94.2789 265.8609 13.20770229149082
ONEWEB-0678             
1 56714U 23068E   26162.68386181 -.00000147  00000+0 -42350-3 0  9990
2 56714  87.9011 260.2892 0001682  99.8153 260.3167 13.15548264148560
ONEWEB-0679             
1 56715U 23068F   26162.69589919 -.00000031  00000+0 -11489-3 0  9997
2 56715  87.9096 229.8603 0002607  93.7906 266.3523 13.16593783151004
ONEWEB-0680             
1 56716U 23068G   26162.72144573  .00000007  00000+0 -14693-4 0  9998
2 56716  87.9262 245.0580 0002623 101.0873 259.0556 13.21827563150374
ONEWEB-0681             
1 56717U 23068H   26162.77779691  .00000028  00000+0  36141-4 0  9993
2 56717  87.9257 245.0481 0002191  73.2736 286.8638 13.21826584150378
ONEWEB-0682             
1 56718U 23068J   26162.70763949  .00000080  00000+0  17882-3 0  9994
2 56718  87.9005 260.2852 0002516 102.0520 258.0893 13.15548170148730
ONEWEB-0683             
1 56719U 23068K   26162.73140749  .00000093  00000+0  21180-3 0  9995
2 56719  87.9011 260.2799 0002216 104.6213 255.5163 13.15548812148704
ONEWEB-0684             
1 56720U 23068L   26162.66326705 -.00000015  00000+0 -73243-4 0  9991
2 56720  87.9009 260.2836 0001161 142.6589 217.4622 13.15547904148529
ONEWEB-0686             
1 56721U 23068M   26162.73231854 -.00000025  00000+0 -99565-4 0  9996
2 56721  87.9092 229.8767 0002144 107.3721 252.7645 13.16594598150997
ONEWEB-0694             
1 56722U 23068N   26162.66265146 -.00000071  00000+0 -22039-3 0  9992
2 56722  87.9112 229.8539 0002514 101.3559 258.7854 13.16594692151042
ONEWEB-0696             
1 56723U 23068P   26162.69652125 -.00000095  00000+0 -28698-3 0  9996
2 56723  87.8999 260.3157 0001489  98.6100 261.5199 13.15546322148643
ONEWEB-0703             
1 56724U 23068Q   26162.78210855  .00000013  00000+0 -81232-7 0  9993
2 56724  87.8999 260.2799 0001260  81.6614 278.4659 13.15548169148542
ONEWEB-0721             
1 56725U 23068R   26162.54111384  .00000010  00000+0 -97466-5 0  9996
2 56725  86.6768  87.3182 0001920  78.2563 281.8786 13.22468888157193
ONEWEB-0015             
1 61594U 24188A   26162.58720477  .00000335  00000+0  91050-3 0  9993
2 61594  87.8892  22.2081 0002285  75.8714 284.2667 13.11419500 83723
ONEWEB-0687             
1 61595U 24188B   26162.61150169  .00000007  00000+0 -14198-4 0  9999
2 61595  87.9130   6.9864 0002353  89.3318 270.8083 13.17647384 85166
ONEWEB-0688             
1 61596U 24188C   26162.64019132  .00000065  00000+0  13381-3 0  9992
2 61596  87.9131   6.9802 0002859  69.5490 290.5949 13.17648496 85167
ONEWEB-0689             
1 61597U 24188D   26162.62110814 -.00000107  00000+0 -33777-3 0  9990
2 61597  87.8903  22.1584 0002010  92.3932 267.7426 13.11416273 83721
ONEWEB-0690             
1 61598U 24188E   26162.63127804 -.00000569  00000+0 -16411-2 0  9996
2 61598  87.8900  22.1680 0001369  67.1075 293.0198 13.11415073 83905
ONEWEB-0691             
1 61599U 24188F   26162.62620277 -.00000375  00000+0 -10941-2 0  9995
2 61599  87.8907  22.0775 0002177  80.5441 279.5933 13.11415006 83756
ONEWEB-0692             
1 61600U 24188G   26162.64653549 -.00000499  00000+0 -14428-2 0  9999
2 61600  87.8890  22.1878 0001684 110.8934 249.2374 13.11418828 83748
ONEWEB-0693             
1 61601U 24188H   26162.57606219  .00000041  00000+0  71736-4 0  9992
2 61601  87.9128   7.0132 0001497  62.2007 297.9276 13.17647983 85141
ONEWEB-0695             
1 61602U 24188J   26162.62280764 -.00000174  00000+0 -52702-3 0  9992
2 61602  87.8889  22.1844 0001943 100.9002 259.2344 13.11414321 83736
ONEWEB-0697             
1 61603U 24188K   26162.65501918 -.00000018  00000+0 -87647-4 0  9997
2 61603  87.8892  22.1684 0001556 109.7398 250.3898 13.11420186 83729
